{
    "links": {
        "self": "http://www.neowsapp.com/rest/v1/neo/3771613?api_key=iIulBulltgU6a56xZRHN4H3l9WmuAYTsLGpBGhQ2"
    },
    "id": "3771613",
    "neo_reference_id": "3771613",
    "name": "(2017 FF1)",
    "designation": "2017 FF1",
    "nasa_jpl_url": "http://ssd.jpl.nasa.gov/sbdb.cgi?sstr=3771613",
    "absolute_magnitude_h": 26.0,
    "estimated_diameter": {
        "kilometers": {
            "estimated_diameter_min": 0.0167708462,
            "estimated_diameter_max": 0.0375007522
        },
        "meters": {
            "estimated_diameter_min": 16.7708462163,
            "estimated_diameter_max": 37.5007521798
        },
        "miles": {
            "estimated_diameter_min": 0.0104209175,
            "estimated_diameter_max": 0.0233018799
        },
        "feet": {
            "estimated_diameter_min": 55.0224631002,
            "estimated_diameter_max": 123.0339677816
        }
    },
    "is_potentially_hazardous_asteroid": false,
    "close_approach_data": [
        {
            "close_approach_date": "2017-03-04",
            "close_approach_date_full": "2017-Mar-04 09:29",
            "epoch_date_close_approach": 1488619740000,
            "relative_velocity": {
                "kilometers_per_second": "11.9438869461",
                "kilometers_per_hour": "42997.9930060817",
                "miles_per_hour": "26717.2807098067"
            },
            "miss_distance": {
                "astronomical": "0.0269123669",
                "lunar": "10.4689107241",
                "kilometers": "4026032.764898503",
                "miles": "2501660.7565572214"
            },
            "orbiting_body": "Earth"
        }
    ],
    "orbital_data": {
        "orbit_id": "2",
        "orbit_determination_date": "2017-04-06 08:19:25",
        "first_observation_date": "2017-03-18",
        "last_observation_date": "2017-03-20",
        "data_arc_in_days": 2,
        "observations_used": 18,
        "orbit_uncertainty": "8",
        "minimum_orbit_intersection": ".00775981",
        "jupiter_tisserand_invariant": "3.237",
        "epoch_osculation": "2457831.5",
        "eccentricity": ".6204345029355254",
        "semi_major_axis": "2.393801741609278",
        "inclination": "1.415848277868253",
        "ascending_node_longitude": "178.0082759502549",
        "orbital_period": "1352.790967339391",
        "perihelion_distance": ".9086045479277306",
        "perihelion_argument": "303.0449590250576",
        "aphelion_distance": "3.878998935290825",
        "perihelion_time": "2457786.275981590153",
        "mean_anomaly": "12.03485758007755",
        "mean_motion": ".2661165018776197",
        "equinox": "J2000",
        "orbit_class": {
            "orbit_class_type": "APO",
            "orbit_class_description": "Near-Earth asteroid orbits which cross the Earth’s orbit similar to that of 1862 Apollo",
            "orbit_class_range": "a (semi-major axis) > 1.0 AU; q (perihelion) < 1.017 AU"
        }
    },
    "is_sentry_object": false
}